start=new Date('2022-08-09T00:00:00.000Z').valueOf();
sats=[{"REF_FRAME":"TEME","FILE":"3532305","BSTAR":"-0.02498500000000","TLE_LINE1":"1 53082U 22077AR  22220.91667824 -.01216213  00000-0 -24985-1 0  9994","ELEMENT_SET_NO":"999","TLE_LINE2":"2 53082  97.6555  40.7889 0001895  69.6098  72.4888 15.48698793  1305","TIME_SYSTEM":"UTC","REV_AT_EPOCH":"130","COUNTRY_CODE":"US","PERIAPSIS":"419.245","RCS_SIZE":"LARGE","MEAN_MOTION":"15.48698793","SITE":"AFWTR","CENTER_NAME":"EARTH","MEAN_ELEMENT_THEORY":"SGP4","MEAN_MOTION_DDOT":"0.0000000000000","APOAPSIS":"421.822","EPOCH":"2022-08-08T22:00:00.999936","OBJECT_NAME":"STARLINK-4321","GP_ID":"209864279","EPHEMERIS_TYPE":"0","LAUNCH_DATE":"2022-07-11","RA_OF_ASC_NODE":"40.7889","CLASSIFICATION_TYPE":"U","MEAN_ANOMALY":"72.4888","OBJECT_TYPE":"PAYLOAD","SEMIMAJOR_AXIS":"6798.669","INCLINATION":"97.6555","PERIOD":"92.981","DECAY_DATE":null,"OBJECT_ID":"2022-077AR","ECCENTRICITY":"0.00018950","MEAN_MOTION_DOT":"-0.01216213","NORAD_CAT_ID":"53082","ARG_OF_PERICENTER":"69.6098"},{"REV_AT_EPOCH":"130","TIME_SYSTEM":"UTC","ELEMENT_SET_NO":"999","TLE_LINE1":"1 53083U 22077AS  22220.91667824 -.01217865  00000-0 -23592-1 0  9992","BSTAR":"-0.02359200000000","FILE":"3532305","REF_FRAME":"TEME","TLE_LINE2":"2 53083  97.6553  40.7944 0001884  56.8022  11.0097 15.50365252  1304","RCS_SIZE":"LARGE","CENTER_NAME":"EARTH","MEAN_ELEMENT_THEORY":"SGP4","SITE":"AFWTR","MEAN_MOTION":"15.50365252","COUNTRY_CODE":"US","PERIAPSIS":"414.381","LAUNCH_DATE":"2022-07-11","EPHEMERIS_TYPE":"0","RA_OF_ASC_NODE":"40.7944","APOAPSIS":"416.941","MEAN_MOTION_DDOT":"0.0000000000000","GP_ID":"209864794","OBJECT_NAME":"STARLINK-4251","EPOCH":"2022-08-08T22:00:00.999936","ECCENTRICITY":"0.00018840","ARG_OF_PERICENTER":"56.8022","NORAD_CAT_ID":"53083","MEAN_MOTION_DOT":"-0.01217865","SEMIMAJOR_AXIS":"6793.796","MEAN_ANOMALY":"11.0097","OBJECT_TYPE":"PAYLOAD","CLASSIFICATION_TYPE":"U","OBJECT_ID":"2022-077AS","PERIOD":"92.881","DECAY_DATE":null,"INCLINATION":"97.6553"},{"RCS_SIZE":"LARGE","CENTER_NAME":"EARTH","MEAN_ELEMENT_THEORY":"SGP4","MEAN_MOTION":"15.48717122","SITE":"AFWTR","COUNTRY_CODE":"US","PERIAPSIS":"419.177","REV_AT_EPOCH":"130","TIME_SYSTEM":"UTC","ELEMENT_SET_NO":"999","TLE_LINE1":"1 53084U 22077AT  22220.91667824 -.01216223  00000-0 -24969-1 0  9999","FILE":"3532305","BSTAR":"-0.02496900000000","REF_FRAME":"TEME","TLE_LINE2":"2 53084  97.6555  40.7883 0001916  67.6575  76.0760 15.48717122  1300","ECCENTRICITY":"0.00019160","ARG_OF_PERICENTER":"67.6575","NORAD_CAT_ID":"53084","MEAN_MOTION_DOT":"-0.01216223","SEMIMAJOR_AXIS":"6798.615","OBJECT_TYPE":"PAYLOAD","MEAN_ANOMALY":"76.0760","CLASSIFICATION_TYPE":"U","OBJECT_ID":"2022-077AT","PERIOD":"92.980","DECAY_DATE":null,"INCLINATION":"97.6555","EPHEMERIS_TYPE":"0","LAUNCH_DATE":"2022-07-11","RA_OF_ASC_NODE":"40.7883","APOAPSIS":"421.783","MEAN_MOTION_DDOT":"0.0000000000000","GP_ID":"209864537","OBJECT_NAME":"STARLINK-4319","EPOCH":"2022-08-08T22:00:00.999936"},{"TIME_SYSTEM":"UTC","REV_AT_EPOCH":"130","BSTAR":"-0.02474400000000","FILE":"3532305","REF_FRAME":"TEME","TLE_LINE1":"1 53085U 22077AU  22220.91667824 -.01216078  00000-0 -24744-1 0  9999","ELEMENT_SET_NO":"999","TLE_LINE2":"2 53085  97.6555  40.7870 0002014  59.9381  86.8133 15.48970164  1306","RCS_SIZE":"LARGE","MEAN_MOTION":"15.48970164","SITE":"AFWTR","CENTER_NAME":"EARTH","MEAN_ELEMENT_THEORY":"SGP4","COUNTRY_CODE":"US","PERIAPSIS":"418.370","EPHEMERIS_TYPE":"0","LAUNCH_DATE":"2022-07-11","RA_OF_ASC_NODE":"40.7870","MEAN_MOTION_DDOT":"0.0000000000000","APOAPSIS":"421.109","EPOCH":"2022-08-08T22:00:00.999936","OBJECT_NAME":"STARLINK-4324","GP_ID":"209864923","ECCENTRICITY":"0.00020140","MEAN_MOTION_DOT":"-0.01216078","NORAD_CAT_ID":"53085","ARG_OF_PERICENTER":"59.9381","CLASSIFICATION_TYPE":"U","OBJECT_TYPE":"PAYLOAD","MEAN_ANOMALY":"86.8133","SEMIMAJOR_AXIS":"6797.874","INCLINATION":"97.6555","PERIOD":"92.965","DECAY_DATE":null,"OBJECT_ID":"2022-077AU"},{"TIME_SYSTEM":"UTC","REV_AT_EPOCH":"130","TLE_LINE2":"2 53086  97.6555  40.7876 0001990  61.5171  83.7153 15.48784986  1304","BSTAR":"-0.02490500000000","FILE":"3532305","REF_FRAME":"TEME","ELEMENT_SET_NO":"999","TLE_LINE1":"1 53086U 22077AV  22220.91667824 -.01216044  00000-0 -24905-1 0  9992","MEAN_MOTION":"15.48784986","SITE":"AFWTR","CENTER_NAME":"EARTH","MEAN_ELEMENT_THEORY":"SGP4","RCS_SIZE":"LARGE","PERIAPSIS":"418.928","COUNTRY_CODE":"US","RA_OF_ASC_NODE":"40.7876","EPHEMERIS_TYPE":"0","LAUNCH_DATE":"2022-07-11","EPOCH":"2022-08-08T22:00:00.999936","OBJECT_NAME":"STARLINK-4318","GP_ID":"209864666","MEAN_MOTION_DDOT":"0.0000000000000","APOAPSIS":"421.634","MEAN_MOTION_DOT":"-0.01216044","NORAD_CAT_ID":"53086","ARG_OF_PERICENTER":"61.5171","ECCENTRICITY":"0.00019900","INCLINATION":"97.6555","PERIOD":"92.976","DECAY_DATE":null,"OBJECT_ID":"2022-077AV","CLASSIFICATION_TYPE":"U","MEAN_ANOMALY":"83.7153","OBJECT_TYPE":"PAYLOAD","SEMIMAJOR_AXIS":"6798.416"},{"EPHEMERIS_TYPE":"0","LAUNCH_DATE":"2022-07-11","RA_OF_ASC_NODE":"40.7857","MEAN_MOTION_DDOT":"0.0000000000000","APOAPSIS":"420.192","EPOCH":"2022-08-08T22:00:00.999936","GP_ID":"209864409","OBJECT_NAME":"STARLINK-4329","ECCENTRICITY":"0.00019790","MEAN_MOTION_DOT":"-0.01216355","ARG_OF_PERICENTER":"62.8082","NORAD_CAT_ID":"53087","OBJECT_TYPE":"PAYLOAD","MEAN_ANOMALY":"86.6165","CLASSIFICATION_TYPE":"U","SEMIMAJOR_AXIS":"6796.982","INCLINATION":"97.6555","OBJECT_ID":"2022-077AW","DECAY_DATE":null,"PERIOD":"92.947","TIME_SYSTEM":"UTC","REV_AT_EPOCH":"130","TLE_LINE1":"1 53087U 22077AW  22220.91667824 -.01216355  00000-0 -24486-1 0  9992","ELEMENT_SET_NO":"999","BSTAR":"-0.02448600000000","FILE":"3532305","REF_FRAME":"TEME","TLE_LINE2":"2 53087  97.6555  40.7857 0001979  62.8082  86.6165 15.49275179  1301","RCS_SIZE":"LARGE","SITE":"AFWTR","MEAN_MOTION":"15.49275179","CENTER_NAME":"EARTH","MEAN_ELEMENT_THEORY":"SGP4","COUNTRY_CODE":"US","PERIAPSIS":"417.502"},{"PERIAPSIS":"417.438","COUNTRY_CODE":"US","MEAN_ELEMENT_THEORY":"SGP4","CENTER_NAME":"EARTH","MEAN_MOTION":"15.49274691","SITE":"AFWTR","RCS_SIZE":"LARGE","TLE_LINE2":"2 53088  97.6555  40.7864 0002075  56.1819  92.4634 15.49274691  1306","TLE_LINE1":"1 53088U 22077AX  22220.91667824 -.01216050  00000-0 -24479-1 0  9997","ELEMENT_SET_NO":"999","BSTAR":"-0.02447900000000","FILE":"3532305","REF_FRAME":"TEME","REV_AT_EPOCH":"130","TIME_SYSTEM":"UTC","OBJECT_ID":"2022-077AX","DECAY_DATE":null,"PERIOD":"92.947","INCLINATION":"97.6555","SEMIMAJOR_AXIS":"6796.984","OBJECT_TYPE":"PAYLOAD","MEAN_ANOMALY":"92.4634","CLASSIFICATION_TYPE":"U","ARG_OF_PERICENTER":"56.1819","NORAD_CAT_ID":"53088","MEAN_MOTION_DOT":"-0.01216050","ECCENTRICITY":"0.00020750","GP_ID":"209864151","OBJECT_NAME":"STARLINK-4333","EPOCH":"2022-08-08T22:00:00.999936","APOAPSIS":"420.259","MEAN_MOTION_DDOT":"0.0000000000000","RA_OF_ASC_NODE":"40.7864","EPHEMERIS_TYPE":"0","LAUNCH_DATE":"2022-07-11"},{"RCS_SIZE":"LARGE","SITE":"AFETR","MEAN_MOTION":"15.73504623","CENTER_NAME":"EARTH","MEAN_ELEMENT_THEORY":"SGP4","COUNTRY_CODE":"US","PERIAPSIS":"347.569","TIME_SYSTEM":"UTC","REV_AT_EPOCH":"130","FILE":"3532305","BSTAR":"-0.00548060000000","REF_FRAME":"TEME","ELEMENT_SET_NO":"999","TLE_LINE1":"1 53132U 22083A   22220.91667824 -.00716970  00000-0 -54806-2 0  9997","TLE_LINE2":"2 53132  53.2169 296.3538 0001966  16.7300 233.8919 15.73504623  1302","ECCENTRICITY":"0.00019660","MEAN_MOTION_DOT":"-0.00716970","NORAD_CAT_ID":"53132","ARG_OF_PERICENTER":"16.7300","CLASSIFICATION_TYPE":"U","MEAN_ANOMALY":"233.8919","OBJECT_TYPE":"PAYLOAD","SEMIMAJOR_AXIS":"6727.027","INCLINATION":"53.2169","DECAY_DATE":null,"PERIOD":"91.515","OBJECT_ID":"2022-083A","LAUNCH_DATE":"2022-07-17","EPHEMERIS_TYPE":"0","RA_OF_ASC_NODE":"296.3538","MEAN_MOTION_DDOT":"0.0000000000000","APOAPSIS":"350.214","EPOCH":"2022-08-08T22:00:00.999936","OBJECT_NAME":"STARLINK-4063","GP_ID":"209864156"},{"EPHEMERIS_TYPE":"0","LAUNCH_DATE":"2022-07-17","RA_OF_ASC_NODE":"296.3611","MEAN_MOTION_DDOT":"0.0000000000000","APOAPSIS":"351.061","EPOCH":"2022-08-08T22:00:00.999936","GP_ID":"209865057","OBJECT_NAME":"STARLINK-4154","ECCENTRICITY":"0.00035010","MEAN_MOTION_DOT":"-0.00853565","ARG_OF_PERICENTER":"5.8569","NORAD_CAT_ID":"53133","OBJECT_TYPE":"PAYLOAD","MEAN_ANOMALY":"241.1603","CLASSIFICATION_TYPE":"U","SEMIMAJOR_AXIS":"6726.841","INCLINATION":"53.2171","OBJECT_ID":"2022-083B","PERIOD":"91.512","DECAY_DATE":null,"TIME_SYSTEM":"UTC","REV_AT_EPOCH":"130","ELEMENT_SET_NO":"999","TLE_LINE1":"1 53133U 22083B   22220.91667824 -.00853565  00000-0 -66096-2 0  9994","REF_FRAME":"TEME","FILE":"3532305","BSTAR":"-0.00660960000000","TLE_LINE2":"2 53133  53.2171 296.3611 0003501   5.8569 241.1603 15.73569928  1302","RCS_SIZE":"LARGE","SITE":"AFETR","MEAN_MOTION":"15.73569928","CENTER_NAME":"EARTH","MEAN_ELEMENT_THEORY":"SGP4","COUNTRY_CODE":"US","PERIAPSIS":"346.351"},{"REV_AT_EPOCH":"130","TIME_SYSTEM":"UTC","TLE_LINE2":"2 53134  53.2171 296.3583 0001830  17.6117 231.1821 15.73486416  1305","FILE":"3532305","BSTAR":"-0.00494210000000","REF_FRAME":"TEME","TLE_LINE1":"1 53134U 22083C   22220.91667824 -.00651092  00000-0 -49421-2 0  9999","ELEMENT_SET_NO":"999","MEAN_ELEMENT_THEORY":"SGP4","CENTER_NAME":"EARTH","MEAN_MOTION":"15.73486416","SITE":"AFETR","RCS_SIZE":"LARGE","PERIAPSIS":"347.713","COUNTRY_CODE":"US","RA_OF_ASC_NODE":"296.3583","LAUNCH_DATE":"2022-07-17","EPHEMERIS_TYPE":"0","OBJECT_NAME":"STARLINK-4150","GP_ID":"209864285","EPOCH":"2022-08-08T22:00:00.999936","APOAPSIS":"350.175","MEAN_MOTION_DDOT":"0.0000000000000","NORAD_CAT_ID":"53134","ARG_OF_PERICENTER":"17.6117","MEAN_MOTION_DOT":"-0.00651092","ECCENTRICITY":"0.00018300","DECAY_DATE":null,"PERIOD":"91.517","OBJECT_ID":"2022-083C","INCLINATION":"53.2171","SEMIMAJOR_AXIS":"6727.079","CLASSIFICATION_TYPE":"U","MEAN_ANOMALY":"231.1821","OBJECT_TYPE":"PAYLOAD"}];
